start=new Date('2021-08-31T00:00:00.000Z').valueOf();
sats=[{"OBJECT_TYPE":"PAYLOAD","CLASSIFICATION_TYPE":"U","REF_FRAME":"TEME","TLE_LINE1":"1 45766U 20038AN  21242.77110125 -.00002662  00000-0 -15989-3 0  9999","SITE":"AFETR","CENTER_NAME":"EARTH","EPOCH":"2021-08-30T18:30:23.148000","OBJECT_ID":"2020-038AN","BSTAR":"-0.00015989000000","NORAD_CAT_ID":"45766","PERIOD":"95.593","ARG_OF_PERICENTER":"99.9818","MEAN_MOTION":"15.06390568","OBJECT_NAME":"STARLINK-1509","LAUNCH_DATE":"2020-06-13","FILE":"3105725","MEAN_ELEMENT_THEORY":"SGP4","ELEMENT_SET_NO":"999","ECCENTRICITY":"0.00016350","PERIAPSIS":"546.110","RA_OF_ASC_NODE":"72.3727","DECAY_DATE":null,"INCLINATION":"53.0561","SEMIMAJOR_AXIS":"6925.377","EPHEMERIS_TYPE":"0","MEAN_MOTION_DDOT":"0.0000000000000","RCS_SIZE":"LARGE","TIME_SYSTEM":"UTC","MEAN_ANOMALY":"260.1356","MEAN_MOTION_DOT":"-0.00002662","APOAPSIS":"548.375","GP_ID":"183735036","REV_AT_EPOCH":"6841","TLE_LINE2":"2 45766  53.0561  72.3727 0001635  99.9818 260.1356 15.06390568 68412","COUNTRY_CODE":"US"},{"EPHEMERIS_TYPE":"0","MEAN_MOTION_DDOT":"0.0000000000000","RCS_SIZE":"LARGE","TIME_SYSTEM":"UTC","PERIAPSIS":"545.812","RA_OF_ASC_NODE":"74.7909","DECAY_DATE":null,"INCLINATION":"53.0549","SEMIMAJOR_AXIS":"6925.373","TLE_LINE2":"2 45767  53.0549  74.7909 0002059  87.5260 272.5965 15.06392056 67407","COUNTRY_CODE":"US","MEAN_ANOMALY":"272.5965","MEAN_MOTION_DOT":"-0.00000148","APOAPSIS":"548.664","GP_ID":"183729396","REV_AT_EPOCH":"6740","OBJECT_ID":"2020-038AP","CLASSIFICATION_TYPE":"U","OBJECT_TYPE":"PAYLOAD","REF_FRAME":"TEME","SITE":"AFETR","TLE_LINE1":"1 45767U 20038AP  21242.23293844 -.00000148  00000-0  90015-5 0  9992","CENTER_NAME":"EARTH","EPOCH":"2021-08-30T05:35:25.881216","NORAD_CAT_ID":"45767","ARG_OF_PERICENTER":"87.5260","PERIOD":"95.593","MEAN_MOTION":"15.06392056","OBJECT_NAME":"STARLINK-1511","FILE":"3105635","MEAN_ELEMENT_THEORY":"SGP4","LAUNCH_DATE":"2020-06-13","ELEMENT_SET_NO":"999","ECCENTRICITY":"0.00020590","BSTAR":"0.00000900150000"},{"BSTAR":"-0.00000032811000","FILE":"3105635","LAUNCH_DATE":"2020-06-13","MEAN_ELEMENT_THEORY":"SGP4","ELEMENT_SET_NO":"999","ECCENTRICITY":"0.00019120","NORAD_CAT_ID":"45768","ARG_OF_PERICENTER":"88.5287","PERIOD":"95.593","MEAN_MOTION":"15.06393652","OBJECT_NAME":"STARLINK-1521","SITE":"AFETR","TLE_LINE1":"1 45768U 20038AQ  21242.01547024 -.00000287  00000-0 -32811-6 0  9997","CENTER_NAME":"EARTH","EPOCH":"2021-08-30T00:22:16.628736","OBJECT_TYPE":"PAYLOAD","CLASSIFICATION_TYPE":"U","REF_FRAME":"TEME","OBJECT_ID":"2020-038AQ","GP_ID":"183730647","REV_AT_EPOCH":"6738","MEAN_ANOMALY":"271.5921","MEAN_MOTION_DOT":"-0.00000287","APOAPSIS":"548.557","COUNTRY_CODE":"US","TLE_LINE2":"2 45768  53.0552  75.7682 0001912  88.5287 271.5921 15.06393652 67389","INCLINATION":"53.0552","SEMIMAJOR_AXIS":"6925.368","PERIAPSIS":"545.909","RA_OF_ASC_NODE":"75.7682","DECAY_DATE":null,"TIME_SYSTEM":"UTC","EPHEMERIS_TYPE":"0","MEAN_MOTION_DDOT":"0.0000000000000","RCS_SIZE":"LARGE"},{"SEMIMAJOR_AXIS":"6925.404","INCLINATION":"53.0545","DECAY_DATE":null,"PERIAPSIS":"545.934","RA_OF_ASC_NODE":"94.4697","TIME_SYSTEM":"UTC","MEAN_MOTION_DDOT":"0.0000000000000","RCS_SIZE":"LARGE","EPHEMERIS_TYPE":"0","REV_AT_EPOCH":"6714","GP_ID":"183730394","APOAPSIS":"548.603","MEAN_MOTION_DOT":"-0.00002137","MEAN_ANOMALY":"276.1124","COUNTRY_CODE":"US","TLE_LINE2":"2 45769  53.0545  94.4697 0001927  84.0084 276.1124 15.06381935 67149","EPOCH":"2021-08-30T07:18:56.788416","SITE":"AFETR","TLE_LINE1":"1 45769U 20038AR  21242.30482394 -.00002137  00000-0 -12467-3 0  9996","CENTER_NAME":"EARTH","OBJECT_TYPE":"PAYLOAD","REF_FRAME":"TEME","CLASSIFICATION_TYPE":"U","OBJECT_ID":"2020-038AR","BSTAR":"-0.00012467000000","ECCENTRICITY":"0.00019270","LAUNCH_DATE":"2020-06-13","FILE":"3105635","MEAN_ELEMENT_THEORY":"SGP4","ELEMENT_SET_NO":"999","ARG_OF_PERICENTER":"84.0084","PERIOD":"95.593","MEAN_MOTION":"15.06381935","OBJECT_NAME":"STARLINK-1459","NORAD_CAT_ID":"45769"},{"RCS_SIZE":"LARGE","MEAN_MOTION_DDOT":"0.0000000000000","EPHEMERIS_TYPE":"0","TIME_SYSTEM":"UTC","DECAY_DATE":null,"RA_OF_ASC_NODE":"55.0526","PERIAPSIS":"545.991","SEMIMAJOR_AXIS":"6925.377","INCLINATION":"53.0557","TLE_LINE2":"2 45770  53.0557  55.0526 0001807 109.4787 250.6397 15.06390577 67676","COUNTRY_CODE":"US","APOAPSIS":"548.494","MEAN_MOTION_DOT":"-0.00001774","MEAN_ANOMALY":"250.6397","REV_AT_EPOCH":"6767","GP_ID":"183729646","OBJECT_ID":"2020-038AS","OBJECT_TYPE":"PAYLOAD","CLASSIFICATION_TYPE":"U","REF_FRAME":"TEME","EPOCH":"2021-08-30T04:11:48.668640","CENTER_NAME":"EARTH","SITE":"AFETR","TLE_LINE1":"1 45770U 20038AS  21242.17486885 -.00001774  00000-0 -10027-3 0  9998","OBJECT_NAME":"STARLINK-1462","MEAN_MOTION":"15.06390577","PERIOD":"95.593","ARG_OF_PERICENTER":"109.4787","NORAD_CAT_ID":"45770","ECCENTRICITY":"0.00018070","ELEMENT_SET_NO":"999","MEAN_ELEMENT_THEORY":"SGP4","FILE":"3105635","LAUNCH_DATE":"2020-06-13","BSTAR":"-0.00010027000000"},{"INCLINATION":"53.0553","SEMIMAJOR_AXIS":"6925.389","RA_OF_ASC_NODE":"53.5918","PERIAPSIS":"545.854","DECAY_DATE":null,"TIME_SYSTEM":"UTC","EPHEMERIS_TYPE":"0","RCS_SIZE":"LARGE","MEAN_MOTION_DDOT":"0.0000000000000","GP_ID":"183729896","REV_AT_EPOCH":"6772","MEAN_ANOMALY":"264.0035","APOAPSIS":"548.655","MEAN_MOTION_DOT":"-0.00000882","COUNTRY_CODE":"US","TLE_LINE2":"2 45771  53.0553  53.5918 0002022  96.1185 264.0035 15.06386705 67727","CENTER_NAME":"EARTH","SITE":"AFETR","TLE_LINE1":"1 45771U 20038AT  21242.50017482 -.00000882  00000-0 -40291-4 0  9995","EPOCH":"2021-08-30T12:00:15.104448","CLASSIFICATION_TYPE":"U","OBJECT_TYPE":"PAYLOAD","REF_FRAME":"TEME","OBJECT_ID":"2020-038AT","BSTAR":"-0.00004029100000","ELEMENT_SET_NO":"999","MEAN_ELEMENT_THEORY":"SGP4","FILE":"3105635","LAUNCH_DATE":"2020-06-13","ECCENTRICITY":"0.00020220","NORAD_CAT_ID":"45771","OBJECT_NAME":"STARLINK-1463","PERIOD":"95.593","ARG_OF_PERICENTER":"96.1185","MEAN_MOTION":"15.06386705"},{"REV_AT_EPOCH":"6767","GP_ID":"183730148","MEAN_MOTION_DOT":"-0.00000241","APOAPSIS":"548.566","MEAN_ANOMALY":"258.8381","COUNTRY_CODE":"US","TLE_LINE2":"2 45772  53.0556  55.4302 0001910 101.2823 258.8381 15.06390424 67673","SEMIMAJOR_AXIS":"6925.378","INCLINATION":"53.0556","DECAY_DATE":null,"PERIAPSIS":"545.920","RA_OF_ASC_NODE":"55.4302","TIME_SYSTEM":"UTC","MEAN_MOTION_DDOT":"0.0000000000000","RCS_SIZE":"LARGE","EPHEMERIS_TYPE":"0","BSTAR":"0.00000270280000","ECCENTRICITY":"0.00019100","LAUNCH_DATE":"2020-06-13","FILE":"3105635","MEAN_ELEMENT_THEORY":"SGP4","ELEMENT_SET_NO":"999","ARG_OF_PERICENTER":"101.2823","PERIOD":"95.593","MEAN_MOTION":"15.06390424","OBJECT_NAME":"STARLINK-1470","NORAD_CAT_ID":"45772","EPOCH":"2021-08-30T02:11:04.953120","TLE_LINE1":"1 45772U 20038AU  21242.09102955 -.00000241  00000-0  27028-5 0  9992","SITE":"AFETR","CENTER_NAME":"EARTH","OBJECT_TYPE":"PAYLOAD","REF_FRAME":"TEME","CLASSIFICATION_TYPE":"U","OBJECT_ID":"2020-038AU"},{"ELEMENT_SET_NO":"999","FILE":"3105635","LAUNCH_DATE":"2020-06-13","MEAN_ELEMENT_THEORY":"SGP4","ECCENTRICITY":"0.00017330","NORAD_CAT_ID":"45773","OBJECT_NAME":"STARLINK-1482","MEAN_MOTION":"15.06396354","PERIOD":"95.592","ARG_OF_PERICENTER":"96.2162","BSTAR":"0.00003006500000","OBJECT_ID":"2020-038AV","CENTER_NAME":"EARTH","TLE_LINE1":"1 45773U 20038AV  21242.41539422  .00000166  00000-0  30065-4 0  9991","SITE":"AFETR","EPOCH":"2021-08-30T09:58:10.060608","OBJECT_TYPE":"PAYLOAD","REF_FRAME":"TEME","CLASSIFICATION_TYPE":"U","COUNTRY_CODE":"US","TLE_LINE2":"2 45773  53.0545  53.9680 0001733  96.2162 263.9024 15.06396354 67721","GP_ID":"183730894","REV_AT_EPOCH":"6772","MEAN_ANOMALY":"263.9024","APOAPSIS":"548.425","MEAN_MOTION_DOT":"0.00000166","TIME_SYSTEM":"UTC","EPHEMERIS_TYPE":"0","RCS_SIZE":"LARGE","MEAN_MOTION_DDOT":"0.0000000000000","INCLINATION":"53.0545","SEMIMAJOR_AXIS":"6925.360","RA_OF_ASC_NODE":"53.9680","PERIAPSIS":"546.025","DECAY_DATE":null},{"RCS_SIZE":"MEDIUM","MEAN_MOTION_DDOT":"0.0000000000000","EPHEMERIS_TYPE":"0","TIME_SYSTEM":"UTC","DECAY_DATE":null,"RA_OF_ASC_NODE":"55.0028","PERIAPSIS":"545.936","SEMIMAJOR_AXIS":"6925.352","INCLINATION":"53.0562","TLE_LINE2":"2 45774  53.0562  55.0028 0001850  94.9106 265.2094 15.06398941 67684","COUNTRY_CODE":"US","APOAPSIS":"548.498","MEAN_MOTION_DOT":"-0.00000750","MEAN_ANOMALY":"265.2094","REV_AT_EPOCH":"6768","GP_ID":"183729147","OBJECT_ID":"2020-038AW","OBJECT_TYPE":"PAYLOAD","REF_FRAME":"TEME","CLASSIFICATION_TYPE":"U","EPOCH":"2021-08-30T04:29:05.282880","CENTER_NAME":"EARTH","TLE_LINE1":"1 45774U 20038AW  21242.18686670 -.00000750  00000-0 -31471-4 0  9997","SITE":"AFETR","OBJECT_NAME":"STARLINK-1485","MEAN_MOTION":"15.06398941","PERIOD":"95.592","ARG_OF_PERICENTER":"94.9106","NORAD_CAT_ID":"45774","ECCENTRICITY":"0.00018500","ELEMENT_SET_NO":"999","FILE":"3105635","LAUNCH_DATE":"2020-06-13","MEAN_ELEMENT_THEORY":"SGP4","BSTAR":"-0.00003147100000"},{"SEMIMAJOR_AXIS":"6925.364","INCLINATION":"53.0553","DECAY_DATE":null,"PERIAPSIS":"546.270","RA_OF_ASC_NODE":"52.2997","TIME_SYSTEM":"UTC","MEAN_MOTION_DDOT":"0.0000000000000","RCS_SIZE":"LARGE","EPHEMERIS_TYPE":"0","REV_AT_EPOCH":"6874","GP_ID":"183733813","MEAN_MOTION_DOT":"-0.00001788","APOAPSIS":"548.187","MEAN_ANOMALY":"269.8476","COUNTRY_CODE":"US","TLE_LINE2":"2 45775  53.0553  52.2997 0001384  90.2671 269.8476 15.06395069 68747","EPOCH":"2021-08-30T18:54:15.664320","TLE_LINE1":"1 45775U 20038AX  21242.78768130 -.00001788  00000-0 -10115-3 0  9999","SITE":"AFETR","CENTER_NAME":"EARTH","OBJECT_TYPE":"PAYLOAD","CLASSIFICATION_TYPE":"U","REF_FRAME":"TEME","OBJECT_ID":"2020-038AX","BSTAR":"-0.00010115000000","ECCENTRICITY":"0.00013840","LAUNCH_DATE":"2020-06-13","FILE":"3105675","MEAN_ELEMENT_THEORY":"SGP4","ELEMENT_SET_NO":"999","MEAN_MOTION":"15.06395069","PERIOD":"95.592","ARG_OF_PERICENTER":"90.2671","OBJECT_NAME":"STARLINK-1488","NORAD_CAT_ID":"45775"}];
